SUOMI-100               
1 43804U 18099AY  26068.68271181  .00014037  00000+0  54773-3 0  9995
2 43804  97.4315 129.5602 0008969 269.9465  90.0745 15.25995383398238
STARLINK-31871          
1 59673U 24084V   26068.29415533 -.00000438  00000+0 -64246-5 0  9995
2 59673  43.0001  43.9358 0000478 237.1288 122.9518 15.27566683104318
